H1 CPF  1  DLR 2021 10 03 10  7762 technosat            
H2  1704205 6203    42829 2021 10 03 00 00 00 2021 10 10 00 00 00    60 1 1  0 0 0
H9
10 0 59493  79200.000000  0       -550676.625       1193253.737       6832119.810
10 0 59493  79260.000000  0       -126080.419       1027814.250       6879274.143
10 0 59493  79320.000000  0        297564.915        854326.923       6897194.503
10 0 59493  79380.000000  0        718404.729        673539.420       6885799.325
10 0 59493  79440.000000  0       1134602.236        486246.599       6845131.104
10 0 59493  79500.000000  0       1544346.573        293287.029       6775356.326
10 0 59493  79560.000000  0       1945860.739         95539.263       6676764.914
10 0 59493  79620.000000  0       2337409.385       -106082.178       6549769.211
10 0 59493  79680.000000  0       2717306.462       -310631.032       6394902.431
10 0 59493  79740.000000  0       3083922.664       -517133.719       6212816.564
10 0 59493  79800.000000  0       3435692.595       -724593.940       6004279.800
10 0 59493  79860.000000  0       3771121.706       -931997.502       5770173.468
10 0 59493  79920.000000  0       4088792.854      -1138317.307       5511488.425
10 0 59493  79980.000000  0       4387372.517      -1342518.439       5229321.029
10 0 59493  80040.000000  0       4665616.685      -1543563.374       4924868.624
10 0 59493  80100.000000  0       4922376.358      -1740417.227       4599424.578
10 0 59493  80160.000000  0       5156602.651      -1932053.098       4254372.858
10 0 59493  80220.000000  0       5367351.417      -2117457.442       3891182.120
10 0 59493  80280.000000  0       5553787.364      -2295635.451       3511399.383
10 0 59493  80340.000000  0       5715187.597      -2465616.380       3116643.296
10 0 59493  80400.000000  0       5850944.622      -2626458.795       2708597.107
10 0 59493  80460.000000  0       5960568.812      -2777255.713       2289001.303
10 0 59493  80520.000000  0       6043690.301      -2917139.588       1859646.008
10 0 59493  80580.000000  0       6100060.376      -3045287.205       1422363.115
10 0 59493  80640.000000  0       6129552.198      -3160924.370        979018.044
10 0 59493  80700.000000  0       6132160.767      -3263330.272        531501.449
10 0 59493  80760.000000  0       6108002.424      -3351841.637         81720.912
10 0 59493  80820.000000  0       6057313.808      -3425856.636       -368407.559
10 0 59493  80880.000000  0       5980450.112      -3484838.475       -816968.138
10 0 59493  80940.000000  0       5877882.656      -3528318.575      -1262053.664
10 0 59493  81000.000000  0       5750195.977      -3555899.410      -1701773.997
10 0 59493  81060.000000  0       5598084.395      -3567257.021      -2134264.255
10 0 59493  81120.000000  0       5422348.089      -3562143.183      -2557692.911
10 0 59493  81180.000000  0       5223888.666      -3540387.148      -2970269.721
10 0 59493  81240.000000  0       5003704.226      -3501896.976      -3370253.382
10 0 59493  81300.000000  0       4762884.046      -3446660.493      -3755958.840
10 0 59493  81360.000000  0       4502602.917      -3374745.898      -4125764.358
10 0 59493  81420.000000  0       4224115.063      -3286301.899      -4478118.255
10 0 59493  81480.000000  0       3928747.785      -3181557.442      -4811545.199
10 0 59493  81540.000000  0       3617894.847      -3060821.070      -5124652.118
10 0 59493  81600.000000  0       3293009.668      -2924479.902      -5416133.666
10 0 59493  81660.000000  0       2955598.373      -2772998.294      -5684777.262
10 0 59493  81720.000000  0       2607212.723      -2606916.165      -5929467.750
10 0 59493  81780.000000  0       2249442.940      -2426846.991      -6149191.674
10 0 59493  81840.000000  0       1883910.392      -2233475.402      -6343041.148
10 0 59493  81900.000000  0       1512260.213      -2027554.434      -6510217.236
10 0 59493  81960.000000  0       1136153.903      -1809902.446      -6650032.794
10 0 59493  82020.000000  0        757262.035      -1581399.837      -6761914.848
10 0 59493  82080.000000  0        377256.982      -1342985.489      -6845406.618
10 0 59493  82140.000000  0         -2194.319      -1095652.906      -6900169.043
10 0 59493  82200.000000  0       -379437.407       -840446.139      -6925981.850
10 0 59493  82260.000000  0       -752837.265       -578455.510      -6922744.305
10 0 59493  82320.000000  0      -1120785.230       -310813.048      -6890475.488
10 0 59493  82380.000000  0      -1481705.696        -38687.719      -6829314.079
10 0 59493  82440.000000  0      -1834062.625        236719.514      -6739517.737
10 0 59493  82500.000000  0      -2176365.853        514180.802      -6621462.077
10 0 59493  82560.000000  0      -2507177.169        792446.710      -6475639.234
10 0 59493  82620.000000  0      -2825116.179       1070251.652      -6302656.018
10 0 59493  82680.000000  0      -3128865.930       1346319.456      -6103231.655
10 0 59493  82740.000000  0      -3417178.311       1619369.046      -5878195.151
10 0 59493  82800.000000  0      -3688879.203       1888120.241      -5628482.203
10 0 59493  82860.000000  0      -3942873.311       2151299.637      -5355131.664
10 0 59493  82920.000000  0      -4178148.671       2407646.575      -5059281.560
10 0 59493  82980.000000  0      -4393780.796       2655919.093      -4742164.659
10 0 59493  83040.000000  0      -4588936.419       2894899.864      -4405103.656
10 0 59493  83100.000000  0      -4762876.863       3123402.089      -4049506.013
10 0 59493  83160.000000  0      -4914961.043       3340275.358      -3676858.450
10 0 59493  83220.000000  0      -5044648.074       3544411.481      -3288721.026
10 0 59493  83280.000000  0      -5151499.399       3734750.165      -2886720.787
10 0 59493  83340.000000  0      -5235180.432       3910284.508      -2472545.121
10 0 59493  83400.000000  0      -5295461.755       4070066.305      -2047934.862
10 0 59493  83460.000000  0      -5332219.905       4213211.197      -1614677.054
10 0 59493  83520.000000  0      -5345437.607       4338903.526      -1174597.425
10 0 59493  83580.000000  0      -5335203.490       4446400.895       -729552.673
10 0 59493  83640.000000  0      -5301711.338       4535038.471       -281422.579
10 0 59493  83700.000000  0      -5245258.821       4604232.953        167898.088
10 0 59493  83760.000000  0      -5166245.687       4653486.098        616507.796
10 0 59493  83820.000000  0      -5065171.465       4682387.810       1062506.472
10 0 59493  83880.000000  0      -4942632.695       4690618.882       1504003.759
10 0 59493  83940.000000  0      -4799319.666       4677953.268       1939127.247
10 0 59493  84000.000000  0      -4636012.710       4644259.927       2366030.602
10 0 59493  84060.000000  0      -4453578.053       4589504.223       2782901.583
10 0 59493  84120.000000  0      -4252963.285       4513748.834       3187969.915
10 0 59493  84180.000000  0      -4035192.467       4417154.182       3579514.968
10 0 59493  84240.000000  0      -3801360.885       4299978.368       3955873.184
10 0 59493  84300.000000  0      -3552629.544       4162576.663       4315445.227
10 0 59493  84360.000000  0      -3290219.358       4005400.537       4656702.915
10 0 59493  84420.000000  0      -3015405.048       3828996.164       4978195.769
10 0 59493  84480.000000  0      -2729508.869       3634002.499       5278557.191
10 0 59493  84540.000000  0      -2433894.133       3421148.909       5556510.273
10 0 59493  84600.000000  0      -2129958.611       3191252.358       5810873.178
10 0 59493  84660.000000  0      -1819127.827       2945214.194       6040564.109
10 0 59493  84720.000000  0      -1502848.260       2684016.504       6244605.856
10 0 59493  84780.000000  0      -1182580.510       2408718.043       6422129.780
10 0 59493  84840.000000  0       -859792.590       2120449.915       6572379.334
10 0 59493  84900.000000  0       -535953.228       1820410.917       6694713.301
10 0 59493  84960.000000  0       -212525.111       1509862.470       6788608.532
10 0 59493  85020.000000  0        109041.770       1190123.263       6853662.088
10 0 59493  85080.000000  0        427316.652        862563.644       6889592.943
10 0 59493  85140.000000  0        740894.385        528599.749       6896243.189
10 0 59493  85200.000000  0       1048401.659        189687.390       6873578.791
10 0 59493  85260.000000  0       1348503.063       -152684.300       6821689.859
10 0 59493  85320.000000  0       1639906.957       -496999.456       6740790.428
10 0 59493  85380.000000  0       1921371.106       -841722.264       6631217.635
10 0 59493  85440.000000  0       2191708.034      -1185303.791       6493430.461
10 0 59493  85500.000000  0       2449790.177      -1526188.999       6328008.052
10 0 59493  85560.000000  0       2694554.758      -1862823.905       6135647.462
10 0 59493  85620.000000  0       2925008.328      -2193662.784       5917160.841
10 0 59493  85680.000000  0       3140230.944      -2517175.361       5673472.147
10 0 59493  85740.000000  0       3339380.005      -2831854.027       5405613.429
10 0 59493  85800.000000  0       3521693.746      -3136221.062       5114720.599
10 0 59493  85860.000000  0       3686494.312      -3428835.753       4802028.702
10 0 59493  85920.000000  0       3833190.468      -3708301.405       4468866.765
10 0 59493  85980.000000  0       3961279.886      -3973272.256       4116652.152
10 0 59493  86040.000000  0       4070350.927      -4222460.171       3746884.494
10 0 59493  86100.000000  0       4160084.013      -4454641.114       3361139.268
10 0 59493  86160.000000  0       4230252.569      -4668661.390       2961060.969
10 0 59493  86220.000000  0       4280723.467      -4863443.563       2548355.902
10 0 59493  86280.000000  0       4311456.993      -5037992.012       2124784.696
10 0 59493  86340.000000  0       4322506.345      -5191398.126       1692154.535
99
